[Satellite]
VERSION=1.1
NAME=GORIZONT 13 [-]
NICKNAME=GORIZONT 13 [-]
TLE1=1 17083U 86090A   17186.23170439 -.00000154  00000-0  00000-0 0  9995
TLE2=2 17083  15.9396 355.3382 0018045 281.5882 278.1406  0.96726535 87023
